{"type": "FeatureCollection", "features": [ {"type": "Feature", "properties": {"norad_id": 30396, "name": "FENGYUN 1C DEB", "group": "fengyun-1c-debris", "lat": -24.682870952802396, "lon": -6.688384576640378, "alt_km": 1037.225162399449, "timestamp": "2025-12-10T09:57:44.975427+00:00", "meta": {"OBJECT_NAME": "FENGYUN 1C DEB", "OBJECT_ID": "1999-025ADK", "EPOCH": "2025-12-09T12:12:08.288928", "MEAN_MOTION": 13.8716741, "ECCENTRICITY": 0.01348966, "INCLINATION": 98.224, "RA_OF_ASC_NODE": 348.7023, "ARG_OF_PERICENTER": 138.604, "MEAN_ANOMALY": 351.8107, "EPHEMERIS_TYPE": 0, "CLASSIFICATION_TYPE": "U", "NORAD_CAT_ID": 30396, "ELEMENT_SET_NO": 999, "REV_AT_EPOCH": 95534, "BSTAR": 0.00017553764, "MEAN_MOTION_DOT": 1.86e-06, "MEAN_MOTION_DDOT": 0}, "tle": {"line1": "1 30396U 99025ADK 25343.50842927  .00000186  00000+0  17554-3 0  9999", "line2": "2 30396  98.2240 348.7023 0134896 138.6040 351.8107 13.87167410955347"}}, "geometry": {"type": "Point", "coordinates": [-6.688384576640378, -24.682870952802396]}}, {"type": "Feature", "properties": {"norad_id": 30397, "name": "FENGYUN 1C DEB", "group": "fengyun-1c-debris", "lat": 52.32544138429439, "lon": -36.14856909746511, "alt_km": 796.9527918748199, "timestamp": "2025-12-10T09:57:44.975438+00:00", "meta": {"OBJECT_NAME": "FENGYUN 1C DEB", "OBJECT_ID": "1999-025ADL", "EPOCH": "2025-12-09T09:35:23.031168", "MEAN_MOTION": 13.98572113, "ECCENTRICITY": 0.01497434, "INCLINATION": 98.4062, "RA_OF_ASC_NODE": 131.8797, "ARG_OF_PERICENTER": 101.9571, "MEAN_ANOMALY": 313.8286, "EPHEMERIS_TYPE": 0, "CLASSIFICATION_TYPE": "U", "NORAD_CAT_ID": 30397, "ELEMENT_SET_NO": 999, "REV_AT_EPOCH": 95718, "BSTAR": 0.0016727347, "MEAN_MOTION_DOT": 2.603e-05, "MEAN_MOTION_DDOT": 0}, "tle": {"line1": "1 30397U 99025ADL 25343.39957212  .00002603  00000+0  16727-2 0  9997", "line2": "2 30397  98.4062 131.8797 0149743 101.9571 313.8286 13.98572113957182"}}, "geometry": {"type": "Point", "coordinates": [-36.14856909746511, 52.32544138429439]}}, {"type": "Feature", "properties": {"norad_id": 30398, "name": "FENGYUN 1C DEB", "group": "fengyun-1c-debris", "lat": -9.97658385058111, "lon": -117.39306283605512, "alt_km": 886.1198633988124, "timestamp": "2025-12-10T09:57:44.975448+00:00", "meta": {"OBJECT_NAME": "FENGYUN 1C DEB", "OBJECT_ID": "1999-025ADM", "EPOCH": "2025-12-09T16:43:14.290752", "MEAN_MOTION": 13.78693158, "ECCENTRICITY": 0.0172926, "INCLINATION": 99.7141, "RA_OF_ASC_NODE": 240.1445, "ARG_OF_PERICENTER": 303.995, "MEAN_ANOMALY": 80.727, "EPHEMERIS_TYPE": 0, "CLASSIFICATION_TYPE": "U", "NORAD_CAT_ID": 30398, "ELEMENT_SET_NO": 999, "REV_AT_EPOCH": 94715, "BSTAR": 0.00083524, "MEAN_MOTION_DOT": 9e-06, "MEAN_MOTION_DDOT": 0}, "tle": {"line1": "1 30398U 99025ADM 25343.69669318  .00000900  00000+0  83524-3 0  9996", "line2": "2 30398  99.7141 240.1445 0172926 303.9950  80.7270 13.78693158947153"}}, "geometry": {"type": "Point", "coordinates": [-117.39306283605512, -9.97658385058111]}}, {"type": "Feature", "properties": {"norad_id": 30400, "name": "FENGYUN 1C DEB", "group": "fengyun-1c-debris", "lat": -80.8370201748131, "lon": 1.2934488649113165, "alt_km": 813.0407070778865, "timestamp": "2025-12-10T09:57:44.975457+00:00", "meta": {"OBJECT_NAME": "FENGYUN 1C DEB", "OBJECT_ID": "1999-025ADP", "EPOCH": "2025-12-08T07:50:43.519776", "MEAN_MOTION": 14.09839617, "ECCENTRICITY": 0.02278529, "INCLINATION": 99.1568, "RA_OF_ASC_NODE": 269.7675, "ARG_OF_PERICENTER": 348.052, "MEAN_ANOMALY": 131.592, "EPHEMERIS_TYPE": 0, "CLASSIFICATION_TYPE": "U", "NORAD_CAT_ID": 30400, "ELEMENT_SET_NO": 999, "REV_AT_EPOCH": 95452, "BSTAR": 0.0059510634, "MEAN_MOTION_DOT": 0.00013297, "MEAN_MOTION_DDOT": 0}, "tle": {"line1": "1 30400U 99025ADP 25342.32689259  .00013297  00000+0  59511-2 0  9996", "line2": "2 30400  99.1568 269.7675 0227852 348.0520 131.5920 14.09839617954521"}}, "geometry": {"type": "Point", "coordinates": [1.2934488649113165, -80.8370201748131]}}, {"type": "Feature", "properties": {"norad_id": 30401, "name": "FENGYUN 1C DEB", "group": "fengyun-1c-debris", "lat": 34.89022718160916, "lon": 47.55494044398551, "alt_km": 719.9745253745332, "timestamp": "2025-12-10T09:57:44.975467+00:00", "meta": {"OBJECT_NAME": "FENGYUN 1C DEB", "OBJECT_ID": "1999-025ADQ", "EPOCH": "2025-12-09T21:31:17.721696", "MEAN_MOTION": 14.27987922, "ECCENTRICITY": 0.0107768, "INCLINATION": 98.9474, "RA_OF_ASC_NODE": 220.7165, "ARG_OF_PERICENTER": 135.6769, "MEAN_ANOMALY": 225.3102, "EPHEMERIS_TYPE": 0, "CLASSIFICATION_TYPE": "U", "NORAD_CAT_ID": 30401, "ELEMENT_SET_NO": 999, "REV_AT_EPOCH": 98263, "BSTAR": 0.00020374, "MEAN_MOTION_DOT": 4.92e-06, "MEAN_MOTION_DDOT": 0}, "tle": {"line1": "1 30401U 99025ADQ 25343.89673289  .00000492  00000+0  20374-3 0  9995", "line2": "2 30401  98.9474 220.7165 0107768 135.6769 225.3102 14.27987922982634"}}, "geometry": {"type": "Point", "coordinates": [47.55494044398551, 34.89022718160916]}}, {"type": "Feature", "properties": {"norad_id": 30403, "name": "FENGYUN 1C DEB", "group": "fengyun-1c-debris", "lat": 8.749254220395951, "lon": 61.371886479866035, "alt_km": 771.5884341433102, "timestamp": "2025-12-10T09:57:44.975478+00:00", "meta": {"OBJECT_NAME": "FENGYUN 1C DEB", "OBJECT_ID": "1999-025ADS", "EPOCH": "2025-12-10T04:51:13.040064", "MEAN_MOTION": 14.21498437, "ECCENTRICITY": 0.0074818, "INCLINATION": 99.0591, "RA_OF_ASC_NODE": 62.5605, "ARG_OF_PERICENTER": 30.4345, "MEAN_ANOMALY": 330.1143, "EPHEMERIS_TYPE": 0, "CLASSIFICATION_TYPE": "U", "NORAD_CAT_ID": 30403, "ELEMENT_SET_NO": 999, "REV_AT_EPOCH": 96770, "BSTAR": 0.002494, "MEAN_MOTION_DOT": 5.572e-05, "MEAN_MOTION_DDOT": 0}, "tle": {"line1": "1 30403U 99025ADS 25344.20223426  .00005572  00000+0  24940-2 0  9993", "line2": "2 30403  99.0591  62.5605 0074818  30.4345 330.1143 14.21498437967703"}}, "geometry": {"type": "Point", "coordinates": [61.371886479866035, 8.749254220395951]}}, {"type": "Feature", "properties": {"norad_id": 30404, "name": "FENGYUN 1C DEB", "group": "fengyun-1c-debris", "lat": 75.16850101850079, "lon": 35.3589602196209, "alt_km": 988.149794035663, "timestamp": "2025-12-10T09:57:44.975488+00:00", "meta": {"OBJECT_NAME": "FENGYUN 1C DEB", "OBJECT_ID": "1999-025ADT", "EPOCH": "2025-12-09T17:22:00.970176", "MEAN_MOTION": 13.34340356, "ECCENTRICITY": 0.0376217, "INCLINATION": 99.8341, "RA_OF_ASC_NODE": 75.6132, "ARG_OF_PERICENTER": 143.8851, "MEAN_ANOMALY": 218.8323, "EPHEMERIS_TYPE": 0, "CLASSIFICATION_TYPE": "U", "NORAD_CAT_ID": 30404, "ELEMENT_SET_NO": 999, "REV_AT_EPOCH": 57996, "BSTAR": 0.0018982, "MEAN_MOTION_DOT": 1.373e-05, "MEAN_MOTION_DDOT": 0}, "tle": {"line1": "1 30404U 99025ADT 25343.72362234  .00001373  00000+0  18982-2 0  9995", "line2": "2 30404  99.8341  75.6132 0376217 143.8851 218.8323 13.34340356579962"}}, "geometry": {"type": "Point", "coordinates": [35.3589602196209, 75.16850101850079]}}, {"type": "Feature", "properties": {"norad_id": 30405, "name": "FENGYUN 1C DEB", "group": "fengyun-1c-debris", "lat": 54.55992881939331, "lon": -89.05707904030437, "alt_km": 760.2866970999985, "timestamp": "2025-12-10T09:57:44.975498+00:00", "meta": {"OBJECT_NAME": "FENGYUN 1C DEB", "OBJECT_ID": "1999-025ADU", "EPOCH": "2025-12-09T23:33:38.040192", "MEAN_MOTION": 14.28877672, "ECCENTRICITY": 0.0051503, "INCLINATION": 98.7938, "RA_OF_ASC_NODE": 77.9439, "ARG_OF_PERICENTER": 161.6348, "MEAN_ANOMALY": 254.916, "EPHEMERIS_TYPE": 0, "CLASSIFICATION_TYPE": "U", "NORAD_CAT_ID": 30405, "ELEMENT_SET_NO": 999, "REV_AT_EPOCH": 97356, "BSTAR": 0.0026154, "MEAN_MOTION_DOT": 6.656e-05, "MEAN_MOTION_DDOT": 0}, "tle": {"line1": "1 30405U 99025ADU 25343.98169028  .00006656  00000+0  26154-2 0  9999", "line2": "2 30405  98.7938  77.9439 0051503 161.6348 254.9160 14.28877672973569"}}, "geometry": {"type": "Point", "coordinates": [-89.05707904030437, 54.55992881939331]}}, {"type": "Feature", "properties": {"norad_id": 30406, "name": "FENGYUN 1C DEB", "group": "fengyun-1c-debris", "lat": -52.65694197145651, "lon": -113.17852986479366, "alt_km": 933.8684120741846, "timestamp": "2025-12-10T09:57:44.975508+00:00", "meta": {"OBJECT_NAME": "FENGYUN 1C DEB", "OBJECT_ID": "1999-025ADV", "EPOCH": "2025-12-09T12:07:57.343584", "MEAN_MOTION": 13.59193496, "ECCENTRICITY": 0.02830968, "INCLINATION": 98.62, "RA_OF_ASC_NODE": 234.5532, "ARG_OF_PERICENTER": 8.191, "MEAN_ANOMALY": 172.8241, "EPHEMERIS_TYPE": 0, "CLASSIFICATION_TYPE": "U", "NORAD_CAT_ID": 30406, "ELEMENT_SET_NO": 999, "REV_AT_EPOCH": 93122, "BSTAR": 0.0035302827, "MEAN_MOTION_DOT": 3.347e-05, "MEAN_MOTION_DDOT": 0}, "tle": {"line1": "1 30406U 99025ADV 25343.50552481  .00003347  00000+0  35303-2 0  9997", "line2": "2 30406  98.6200 234.5532 0283096   8.1910 172.8241 13.59193496931223"}}, "geometry": {"type": "Point", "coordinates": [-113.17852986479366, -52.65694197145651]}}, {"type": "Feature", "properties": {"norad_id": 30409, "name": "FENGYUN 1C DEB", "group": "fengyun-1c-debris", "lat": 39.29588148960333, "lon": -35.05050653141028, "alt_km": 769.6150348242609, "timestamp": "2025-12-10T09:57:44.975518+00:00", "meta": {"OBJECT_NAME": "FENGYUN 1C DEB", "OBJECT_ID": "1999-025ADY", "EPOCH": "2025-12-10T04:55:45.280416", "MEAN_MOTION": 14.0371913, "ECCENTRICITY": 0.0167896, "INCLINATION": 98.4735, "RA_OF_ASC_NODE": 331.7612, "ARG_OF_PERICENTER": 12.6974, "MEAN_ANOMALY": 47.118, "EPHEMERIS_TYPE": 0, "CLASSIFICATION_TYPE": "U", "NORAD_CAT_ID": 30409, "ELEMENT_SET_NO": 999, "REV_AT_EPOCH": 96394, "BSTAR": 0.0013436, "MEAN_MOTION_DOT": 2.355e-05, "MEAN_MOTION_DDOT": 0}, "tle": {"line1": "1 30409U 99025ADY 25344.20538519  .00002355  00000+0  13436-2 0  9995", "line2": "2 30409  98.4735 331.7612 0167896  12.6974  47.1180 14.03719130963944"}}, "geometry": {"type": "Point", "coordinates": [-35.05050653141028, 39.29588148960333]}}]}